CENTAURI-7              
1 62708U 25009DD  26068.76467094  .00005487  00000+0  48082-3 0  9992
2 62708  97.7123 150.3372 0001973 133.1699 226.9688 14.97068612 62583
STARLINK-33961          
1 64047U 25102AB  26068.50325301 -.00023035  00000+0 -19275-2 0  9992
2 64047  70.0017 114.9515 0002797 251.6237 108.4618 14.98362597 45804
